Establishment,Address,Suburb,Postcode,State,Establishment Type,latitude,longtitude
McDonald's,1500 Eastlink Northbound,Scoresby,3179,VIC,Restaurant,-37.9122566,145.2134926
McDonald's,Princes Fwy,Officer,3809,VIC,Restaurant,-38.0607528,145.4133677
McDonald's,127 Canterbury Rd,Blackburn South,3130,VIC,Restaurant,-37.831578,145.147816
McDonald's,Burwood Hwy & Scott Grove,Burwood,3125,VIC,Restaurant,-37.8506486,145.0980404
McDonald's,606 Warrigal Rd,Holmesglen,3148,VIC,Restaurant,-37.875853,145.091004
McDonald's,North Rd & Poath Road,Oakleigh,3166,VIC,Restaurant,-37.9081296,145.0741707
McDonald's,661/663 Warrigal Rd,South Oakleigh,3167,VIC,Restaurant,-37.923326,145.082388
McDonald's,1736-1740 Dandenong Rd,Clayton,3168,VIC,Restaurant,-37.913666,145.1252989
McDonald's,Springvale Rd & Wellington Rd,Mulgrave,3170,VIC,Restaurant,-37.9185419,145.1588272
McDonald's,768-770 High St Rd,Glen Waverley,3150,VIC,Restaurant,-37.874644,145.167259
McDonald's,"Cnr Princes Highway & Elonera Road,  Princes Hwy",Noble Park,3174,VIC,Restaurant,-37.961173,145.188657
McDonald's,Cnr Springvale & Heatherton Roads,Springvale,3171,VIC,Restaurant,-37.9621726,145.1502517
McDonald's,"Boundary Rd & Centre Dandenong Rd,",Braeside,3195,VIC,Restaurant,-37.9722459,145.1116796
McDonald's,227-235 Church St,Richmond,3121,VIC,Restaurant,-37.8179956,144.999632
McDonald's,Nepean Hwy & Glenhuntly Road,Elsternwick,3185,VIC,Restaurant,-37.8838267,144.9972084
McDonald's,484 Malvern Rd,Prahran,3181,VIC,Restaurant,-37.848182,145.002577
McDonald's,Swanston Street II,Melbourne ,3000,VIC,Restaurant,-37.817205,144.967051
McDonald's,318 Whitehorse Rd,Balwyn,3103,VIC,Restaurant,-37.813448,145.084837
McDonald's,204/192 High St,Doncaster ,3108,VIC,Restaurant,-37.7741255,145.1141023
McDonald's,120 Bell St,Heidelberg Heights,3084,VIC,Restaurant,-37.75299,145.0515716
McDonald's,"Homemaker Centre, 19-33 Murray Rd,",Preston,3072,VIC,Restaurant,-37.7416938,145.0278434
McDonald's,411-423 Bell Street (Cnr St Georges Road),Preston ,3072,VIC,Restaurant,-37.7445369,144.9974957
McDonald's,Elizabeth Street,11/15 Elizabeth St,3000,VIC,Restaurant,-37.817825,144.964552
McDonald's,407 St Kilda Rd,St Kilda,3004,VIC,Restaurant,-37.8361779,144.9761191
McDonald's,392 Chapel St,South Yarra,3141,VIC,Restaurant,-37.845784,144.99455
McDonald's,Cnr Blackshaws & Millers Roads,Altona,3018,VIC,Restaurant,-37.831231,144.8483081
McDonald's,Western Ring Rd,Sunshine,3022,VIC,Restaurant,-37.7546654,144.8267892
McDonald's,280 Berwick-Cranbourne Rd,Clyde,3978,VIC,Restaurant,-38.1186343,145.3203786
McDonald's,410 Thompsons Rd,Cranbourne North,3977,VIC,Restaurant,-38.0845594,145.2939517
McDonald's,535 S Gippsland Hwy,Hampton Park,3976,VIC,Restaurant,-38.0416182,145.2524546
McDonald's,"Westfield Fountain Gate, 4 Brechin Dr",Narre Warren,3805,VIC,Restaurant,-38.0175843,145.3040037
McDonald's,"Endeavour Hills Shopping Centre, (cnr Heatherton Rd), Matthew Flinders Ave",Endeavour Hills,3802,VIC,Restaurant,-37.976748,145.259106
McDonald's,Boundary Rd & Centre Dandenong Rd,Braeside,3915,VIC,Restaurant,-37.9722459,145.1116796
McDonald's,Nepean Hwy & Jamieson St,Cheltenham ,3125,VIC,Restaurant,-37.9606246,145.0543561
McDonald's,Cnr Cheltenham & Perry Roads,Keysborough,3175,VIC,Restaurant,-37.994449,145.1753838
McDonald's,Cnr Wells & Edithvale Roads,Springvale South,3172,VIC,Restaurant,-38.02884,145.130758
McDonald's,97/99 Cheltenham Rd,Dandenong ,3175,VIC,Restaurant,-37.9903476,145.1996414
McDonald's,BP Service Centre 910 Thompson Rd Cnr Westernport Hwy,Lyndhurst ,3975,VIC,Restaurant,-38.078784,145.240126
McDonald's,Cnr Western Port Highway & Hall Road,Skye,3977,VIC,Restaurant,-38.108327,145.232293
McDonald's,"Cranbourne Park, South Gippsland Hwy Cranbourne Park Shopping Centre",Cranbourne ,3977,VIC,Restaurant,-38.109959,145.281868
McDonald's,"2- Cnr, Kangan Dr",Berwick ,3806,VIC,Restaurant,-38.040093,145.342717
McDonald's,"Cnr Clyde & Homestead Roads, Clyde Rd",Berwick,3806,VIC,Restaurant,-38.05561,145.3392349
McDonald's,452 Nepean Highway Wells Street,Frankston ,3199,VIC,Restaurant,-38.142508,145.12077
McDonald's,223 Cranbourne Rd,Karingal ,3199,VIC,Restaurant,-38.1518124,145.1538106
McDonald's,230-240 Cranbourne-Frankston Rd,Langwarrin,3910,VIC,Restaurant,-38.1508408,145.196819
McDonald's,"90 Hall Rd, Carrum Downs",Carrum Downs,3201,VIC,Restaurant,-38.101561,145.1861427
McDonald's,2 Golf Links Rd,Frankston,3199,VIC,Restaurant,-38.1645772,145.1379505
McDonald's,1-3/1400 Peninsula Link,Baxter,3911,VIC,Restaurant,-38.2048553,145.1361773
McDonald's,49 Eramosa Rd W,Somerville ,3912,VIC,Restaurant,-38.2242698,145.1697931
McDonald's,970 Nepean Hwy,Mornington ,3931,VIC,Restaurant,-38.2304658,145.0449349
McDonald's,Nepean Hwy & Fourth Avenue,Rosebud,3939,VIC,Restaurant,-38.3574547,144.8988737
McDonald's,"Arena Shopping Centre, 4 Cardinia Rd",Officer,3809,VIC,Restaurant,-38.0643859,145.4351679
McDonald's,4465 S Gippsland Hwy,Caldermeade,3984,VIC,Restaurant,-38.2454092,145.5371277
McDonald's,77 Young St,Drouin,3818,VIC,Restaurant,-38.1341992,145.8570763
McDonald's,51/53 Victoria St,Warragul ,3820,VIC,Restaurant,-38.1611699,145.9293442
McDonald's,28 Anderson St,Leongatha,3953,VIC,Restaurant,-38.4731513,145.9436457
McDonald's,51/53 Victoria St,Warragul,3820,VIC,Restaurant,-38.1611699,145.9293442
McDonald's,Princes Dr,Morwell,3840,VIC,Restaurant,-38.236478,146.4242247
McDonald's,1-3 Standing Dr,Traralgon East,3844,VIC,Restaurant,-38.19156,146.5625555
McDonald's,"Stockland Traralgon Shopping Centre, Traralgon Centre Plaza, 24-26 Argyle St",Traralgon,3844,VIC,Restaurant,-38.194513,146.539444
McDonald's,"Cnr Cunninghame & York Streets, York St",Sale,3850,VIC,Restaurant,-38.106946,147.067835
McDonald's,232 Main St,Bairnsdale,3875,VIC,Restaurant,-37.8261844,147.6278356
McDonald's,359/371 Esplanade,Lakes Entrance,3909,VIC,Restaurant,-37.8801157,147.9865925
McDonald's,285 Victoria Cross Parade,Wodonga,3690,VIC,Restaurant,-36.1380691,146.908886
McDonald's,"Birillee Shopping Centre, Melrose Drive",West Wodonga,3690,VIC,Restaurant,-36.1278479,146.8655677
McDonald's,285 Victoria Cross Parade,Wodonga,3690,VIC,Restaurant,-36.1380691,146.908886
McDonald's,13-17 Ryley St,Wangaratta,3676,VIC,Restaurant,-36.3584583,146.3172195
McDonald's,"BP Service Centre, Northbound Side, Hume Highway",Glenrowan,3675,VIC,Restaurant,-36.438924,146.248014
McDonald's,53-55 Telford St,Yarrawonga,3730,VIC,Restaurant,-36.0180374,146.0042677
McDonald's,"Euroa Service Centre, Hume Fwy",Euroa,3666,VIC,Restaurant,-36.743472,145.591514
McDonald's,169/175 Numurkah Rd,Shepparton,3630,VIC,Restaurant,-36.3546708,145.4024767
McDonald's,12/22 McLennan St,Mooroopna ,3629,VIC,Restaurant,-36.3933023,145.3637114
McDonald's,624-628 Wyndham St,Shepparton,3630,VIC,Restaurant,-36.3996119,145.3950782
McDonald's,479-489 High St,Echuca ,3564,VIC,Restaurant,-36.1250387,144.7469278
McDonald's,"2 Stafford St,",California Gully,3556,VIC,Restaurant,-36.7324733,144.2576316
McDonald's,582/586 Napier St,White Hills,3550,VIC,Restaurant,-36.7223943,144.312548
McDonald's,"Strath Village Shopping Centre, 144/146 Condon St",Bendigo,3550,VIC,Restaurant,-36.774744,144.3052216
McDonald's,218 High St,Bendigo ,3550,VIC,Restaurant,-36.8029076,144.2418129
McDonald's,"Melbourne Airport (MEL), Departure Dr",Melbourne Airport ,3045,VIC,Restaurant,-37.6690123,144.8410273
McDonald's,Western Fwy,Rockbank ,3335,VIC,Restaurant,-37.7328427,144.6678415
McDonald's,190/200 Ballarat Rd,Footscray ,3011,VIC,Restaurant,-37.7912364,144.8902633
McDonald's,260 Racecourse Rd,Flemington ,3031,VIC,Restaurant,-37.7878507,144.9317767
McDonald's,"Barkly Square, 90-106 Sydney Rd",Brunswick ,3056,VIC,Restaurant,-37.7756059,144.962204
McDonald's,199 Queens Parade,Fitzroy North,3068,VIC,Restaurant,-37.7871666,144.9935952
McDonald's,Nepean Hwy & Glenhuntly Road,Elsternwick,3185,VIC,Restaurant,-37.8838267,144.9972084
McDonald's,100 Waverley Rd,Malvern East,3145,VIC,Restaurant,-37.8760955,145.0478116
McDonald's,501-503 Elizabeth St,Melbourne,3000,VIC,Restaurant,-37.8073269,144.9596877
McDonald's,Victoria Parade & Smith St,Collingwood,3066,VIC,Restaurant,-37.808727,144.9825865
McDonald's,City Road,South Melbourne,3205,VIC,Restaurant,-37.8325038,144.9523665
McDonald's,692 Glenferrie Rd,Hawthorn ,3122,VIC,Restaurant,-37.820573,145.035927
McDonald's,"Crown Casino, Crown Towers Melbourne, 8 Whiteman St",Southbank,3006,VIC,Restaurant,-37.822345,144.96037
McDonald's," The Royal Children's Hospital Melbourne, Royal Childrens Hospital, Flemington Rd, Flemington Road",Parkville,3052,VIC,Restaurant,-37.7933613,144.9494399
McDonald's,162 Somerville Rd,Yarraville,3013,VIC,Restaurant,-37.8125568,144.8841676
McDonald's,79-89 Keilor Rd,North Essendon,3042,VIC,Restaurant,-37.7423318,144.9039385
McDonald's,2 Little Boundary Rd,Brooklyn ,3025,VIC,Restaurant,-37.8235846,144.8236307
McDonald's,67 Military Rd,Avondale Heights,3034,VIC,Restaurant,-37.7665708,144.8633884
McDonald's,Cnr Blackshaws & Millers Roads,Altona ,3018,VIC,Restaurant,-37.831231,144.8483081
McDonald's,89 Keilor Park Dr,Keilor Park,3042,VIC,Restaurant,-37.7189583,144.8524507
McDonald's,173 Mickleham Rd,Tullamarine ,3043,VIC,Restaurant,-37.6988319,144.8804181
McDonald's,Bell St & Sussex St,Pascoe Vale,3044,VIC,Restaurant,-37.7395095,144.948471
McDonald's,1410-1424 Sydney Rd,Fawkner,3060,VIC,Restaurant,-37.6903217,144.9585969
McDonald's,1171-1173 Pascoe Vale Rd,Broadmeadows ,3047,VIC,Restaurant,-37.677526,144.922045
McDonald's,High St & Childs Road,Epping,3076,VIC,Restaurant,-37.6597109,145.0191688
McDonald's,30 Dalton Roads (cnr Settlement Rd),Thomastown,3074,VIC,Restaurant,-37.6894559,145.0274157
McDonald's,University Dr,Mill Park,3082,VIC,Restaurant,-37.6598012,145.078981
McDonald's,375 Lower Plenty Rd,Yallambie,3085,VIC,Restaurant,-37.7311498,145.0865691
McDonald's,"Plenty Rd & Dunne Street,",Kingsbury ,3083,VIC,Restaurant,-37.7168339,145.0428975
McDonald's,"Homemaker Centre, 19-33 Murray Rd",Preston,3072,VIC,Restaurant,-37.7416938,145.0278434
McDonald's,Bridge St,Eltham,3095,VIC,Restaurant,-37.7190297,145.1463649
McDonald's,506-510 Middleborough Rd,Box Hill North,3130,VIC,Restaurant,-37.8096662,145.1406967
McDonald's,261/267 High St,Kew,3101,VIC,Restaurant,-37.8051418,145.0348792
McDonald's,20 Mt Derrimut Rd,Derrimut ,3030,VIC,Restaurant,-37.7835813,144.7716603
McDonald's,7 Fitzgerald Rd,Laverton North,3026,VIC,Restaurant,-37.8435536,144.7818032
McDonald's,1-9 Lunn Ct,Laverton,3028,VIC,Restaurant,-37.8697886,144.7610724
McDonald's,1-9 Jamieson Way,Point Cook,3030,VIC,Restaurant,-37.8970141,144.7537209
McDonald's,Sayers Rd & Forsyth Rd,Williams Landing ,3027,VIC,Restaurant,-37.8527666,144.7311911
McDonald's,276 Derrimut Rd,Hoppers Crossing,3029,VIC,Restaurant,-37.860885,144.686166
McDonald's,Ballan Rd & Manor Lakes Blvd,Wyndham Vale,3024,VIC,Restaurant,-37.875955,144.614427
McDonald's,565 Derrimut Rd,Tarneit ,3029,VIC,Restaurant,-37.8352794,144.6901564
McDonald's,1/377 Sayers Rd,Hoppers Crossing,3029,VIC,Restaurant,-37.8510048,144.7075276
McDonald's,41-43 Synnot St,Werribee,3030,VIC,Restaurant,-37.9030291,144.6617332
7-Eleven ,123/125 Warrigal Rd,Oakleigh,3166,VIC,Convenience Shop,-37.903367,145.0862386
Caltex,969 Murrumbeena Cres,Murrumbeena,3163,VIC,Petrol Station,-37.8999782,145.0702172
Coles Express,779/763 Dandenong Rd,Malvern,3144,VIC,Petrol Station,-37.873054,145.037864
BP,1400 Dandenong Rd,Oakleigh,3166,VIC,Petrol Station,-37.8935099,145.0898371
7-Eleven,Malvern Rd,Malvern East,3145,VIC,Petrol Station,-37.8721733,145.0629244
United Petroleum,1644 Princes Hwy,Clayton,3168,VIC,Petrol Station,-37.9066679,145.1147674
United Petroleum,952 North Rd,Murrumbeena,3163,VIC,Petrol Station,-37.9070525,145.0653334
Caltex Star Mart,147 Koornang Rd,Carnegie,3163,VIC,Petrol Station,-37.8893485,145.0567449
Coles Express,1386-1388 Dandenong Rd,Oakleigh,3166,VIC,Petrol Station,-37.8933528,145.0884879
United Petroleum,641-643 Centre Rd,Bentleigh East,3165,VIC,Petrol Station,-37.9201135,145.0522618
Coles Express,260 Stephensons Rd,Mount Waverley,3149,VIC,Petrol Station,-37.8765989,145.1292314
7-Eleven,609 Waverley Rd,Chadstone,3148,VIC,Petrol Station,-37.8770515,145.0859244
Coles Express,422/424 South Rd,Moorabbin,3189,VIC,Petrol Station,-37.934334,145.042744
7-Eleven,McKinnon Rd,McKinnon,3204,VIC,Petrol Station,-37.9111474,145.0390062
BP,720/716 Warrigal Rd,Chadstone,3148,VIC,Petrol Station,-37.8845688,145.0894561
BP,162-168 Warrigal Rd,Melbourne,3166,VIC,Petrol Station,-37.9078606,145.0856218
Caltex Star Mart,Clayton Rd,Clayton,3166,VIC,Petrol Station,-37.9142743,145.1218171
7-Eleven,15-17 Sir John Monash Dr,Caulfield,3162,VIC,Petrol Station,-37.8767061,145.0423155
BP,682/688 Springvale Rd,Mulgrave ,3170,VIC,Petrol Station,-37.9179,145.159121
BP,1367 High St,Malvern,3144,VIC,Petrol Station,-37.8579729,145.0408764
Coles Express,359 Glenferrie Rd,Malvern,3144,VIC,Petrol Station,-37.8517677,145.0297042
Hungry Jack's,1414 Dandenong Rd,Oakleigh,3166,VIC,Restaurant,-37.8937421,145.0911177
Hungry Jack's,2/301 Smithfield Road,FLEMINGTON,3031,VIC,Restaurant,-37.7922028,144.9186802
Hungry Jack's,62 Cook Street,PORT MELBOURNE,3207,VIC,Restaurant,-37.8307419,144.9156178
Hungry Jack's,99 Spencer Street,MELBOURNE,3000,VIC,Restaurant,-37.8170291,144.9531463
Hungry Jack's,3 Heatherdale Road,RINGWOOD,3134,VIC,Restaurant,-37.817958,145.213558
Hungry Jack's,148 Watton Street,WERRIBEE,3030,VIC,Restaurant,-37.9027251,144.6588107
Hungry Jack's,10 Springvale Road,SPRINGVALE,3171,VIC,Restaurant,-37.933549,145.155367
Hungry Jack's,45 Donnybrook Road,MICKELHAM ,3064,VIC,Restaurant,-37.5397798,144.9389673
Hungry Jack's,5 Mt Dandenong Road,RINGWOOD,3134,VIC,Restaurant,-37.8109155,145.2389576
Hungry Jack's,1 Little Burwood Road,WANTIRNA SOUTH,3152,VIC,Restaurant,-37.8710956,145.2432445
Hungry Jack's,1370 Ferntree Gully Road,KNOXFIELD,3180,VIC,Restaurant,-37.8995635,145.2339136
Hungry Jack's,Parkmore Shopping Centre, PARKMORE,3131,VIC,Restaurant,-37.9927256,145.173332
Hungry Jack's,593 - 605 Dorset Road,CROYDON,3136,VIC,Restaurant,-37.8248805,145.2877226
Hungry Jack's,Coburn Central Shopping Centre,MELTON,3337,VIC,Restaurant,-37.6856158,144.5667755
Hungry Jack's,100 Hall Road,CARRUM DOWNS,3201,VIC,Restaurant,-38.1019184,145.1868748
Hungry Jack's,5-25 Hughes Road,AVALON,3211,VIC,Restaurant,-38.0003084,144.4933427
Hungry Jack's,35 Pousties Road,AVALON,3211,VIC,Restaurant,-38.0088476,144.4920116
Hungry Jack's,Great Southern Homemaker Centre,CRANBOURNE NORTH,3977,VIC,Restaurant,-38.0850195,145.2784718
Hungry Jack's,Karingal Hub Shopping Centre,FRANKSTON,3199,VIC,Restaurant,-38.1530272,145.165619
Hungry Jack's,456 Melbourne Road,GEELONG,3220,VIC,Restaurant,-38.1005025,144.3543567
Coles,445-457 Glenhuntly Rd,Elsternwick,3185,VIC,Supermarket,-37.8849318,145.0067698
Coles,Burwood Hwy & Blackburn Rd,Burwood East,3023,VIC,Supermarket,-37.8524982,145.1520833
Woolworth,551-557 Warrigal Road,Ashwood,3147,VIC,Supermarket,-37.8665722,145.0929357
Woolworth,17-39 Canterbury Rd,Bayswater North,3153,VIC,Supermarket,-37.8229503,145.3018035
Woolworth,522-550 Wellington Rd,Melbourne,3170,VIC,Supermarket,-37.921976,145.183035
